SKYSAT-C1               
1 41601U 16040C   26167.36960198  .00007756  00000+0  22129-3 0  9990
2 41601  96.9554 199.1338 0003566  59.9863 300.1736 15.36289892557747
LAPAN-A3                
1 41603U 16040E   26167.60373063  .00002843  00000+0  91131-4 0  9990
2 41603  97.1486 163.7686 0010948  27.8016 332.3810 15.33101347554725
GAOFEN-3                
1 41727U 16049A   26167.59833029  .00000005  00000+0  14827-4 0  9992
2 41727  98.4003 175.3930 0001378  99.2306 260.9040 14.42215429518563
SKYSAT-C4               
1 41771U 16058B   26167.55671921  .00013251  00000+0  25012-3 0  9992
2 41771  96.9166 189.3554 0001299 131.5273 228.6090 15.48568399545376
SKYSAT-C5               
1 41772U 16058C   26167.38659804  .00006589  00000+0  19966-3 0  9997
2 41772  97.0466 208.0627 0001139 322.5384  37.5781 15.34460991543624
SKYSAT-C2               
1 41773U 16058D   26167.54557251  .00009678  00000+0  22840-3 0  9996
2 41773  97.0161 189.6644 0004719  72.1925 287.9838 15.42057803544950
SKYSAT-C3               
1 41774U 16058E   26167.56328325  .00018889  00000+0  30943-3 0  9994
2 41774  96.8998 198.4337 0001499  95.9144 264.2281 15.52514748546017
ALSAT-1B                
1 41785U 16059C   26167.56054700  .00000205  00000+0  39938-4 0  9997
2 41785  97.7743 176.3511 0008032 222.7088 137.3496 14.72274312520485
PATHFINDER 1            
1 41787U 16059E   26167.59111492  .00000456  00000+0  87943-4 0  9991
2 41787  97.8166 166.8943 0027744 205.5297 154.4540 14.67662531519624
SCATSAT 1               
1 41790U 16059H   26167.60459243  .00000893  00000+0  12412-3 0  9999
2 41790  98.1191 231.3647 0053361 249.4136 110.1346 14.79524386101507
GOKTURK 1A              
1 41875U 16073A   26167.56169823  .00000248  00000+0  57842-4 0  9997
2 41875  98.1259  62.2465 0001437  77.9383 282.1979 14.62773983508739
RESOURCESAT-2A          
1 41877U 16074A   26167.64850469  .00000204  00000+0  11311-3 0  9994
2 41877  98.7532 241.1572 0003365  84.6444 275.5117 14.21616743494226
CARTOSAT-2D             
1 41948U 17008A   26167.43389785  .00003269  00000+0  15797-3 0  9992
2 41948  97.4109 226.7539 0003930 231.7197 128.3684 15.19330343517464
SENTINEL-2B             
1 42063U 17013A   26167.57812036  .00000323  00000+0  13979-3 0  9990
2 42063  98.5697 242.3611 0001191  87.2592 272.8727 14.30817737484557
CARTOSAT-2E             
1 42767U 17036C   26167.64936891  .00004869  00000+0  23419-3 0  9999
2 42767  97.4273 227.4609 0002551 322.7222  37.3835 15.19252613498064
FORMOSAT-5              
1 42920U 17049A   26167.57015963  .00000133  00000+0  44610-4 0  9991
2 42920  98.2254 242.8936 0012690  86.0729 274.1916 14.50898688466589
SENTINEL-5P             
1 42969U 17064A   26167.56750690  .00000030  00000+0  35330-4 0  9998
2 42969  98.7925 109.7031 0000963  85.2387 274.8899 14.19518841449471
SKYSAT-C11              
1 42987U 17068A   26167.41496620  .00023062  00000+0  31054-3 0  9994
2 42987  97.4351 316.2117 0000652  85.8238 274.3092 15.57859742483127
SKYSAT-C10              
1 42988U 17068B   26167.37949327  .00007605  00000+0  22905-3 0  9997
2 42988  97.4508 304.2182 0001114  96.2751 263.8619 15.34627153482234
SKYSAT-C9               
1 42989U 17068C   26167.33019341  .00011332  00000+0  27153-3 0  9990
2 42989  97.4429 305.0950 0009388 135.6154 224.5847 15.41543793482620
SKYSAT-C8               
1 42990U 17068D   26167.41718050  .00008787  00000+0  24534-3 0  9994
2 42990  97.4526 304.0531 0001465  95.7997 264.3415 15.36963915482194
SKYSAT-C7               
1 42991U 17068E   26167.34566659  .00008911  00000+0  24900-3 0  9999
2 42991  97.4536 304.9700 0007203 108.9699 251.2326 15.36912525482248
SKYSAT-C6               
1 42992U 17068F   26167.62498520  .00007513  00000+0  22931-3 0  9991
2 42992  97.4572 305.2249 0004392 139.0315 221.1258 15.34202257482238
CARTOSAT-2F             
1 43111U 18004A   26167.61566655  .00004140  00000+0  19990-3 0  9994
2 43111  97.4792 227.2558 0000533 208.6977 151.4228 15.19213990467247
GAOFEN-1 02             
1 43259U 18031A   26167.62078677  .00001161  00000+0  17423-3 0  9999
2 43259  98.0531 230.1497 0003881  35.7443 324.4026 14.76458261442615
GAOFEN-1 03             
1 43260U 18031B   26167.59894156  .00000612  00000+0  95326-4 0  9994
2 43260  98.0517 229.9862 0003750  80.2740 279.8893 14.76468437442603
GAOFEN-1 04             
1 43262U 18031D   26167.16799045  .00000478  00000+0  76072-4 0  9997
2 43262  98.0533 229.7469 0002239  82.9600 277.1864 14.76478078442532
SENTINEL-3B             
1 43437U 18039A   26167.41827835  .00000074  00000+0  48773-4 0  9995
2 43437  98.6250 234.9616 0000731  87.3639 272.7625 14.26734457424016
GAOFEN-5 01             
1 43461U 18043A   26167.51368709  .00000274  00000+0  66448-4 0  9999
2 43461  98.4569 139.0857 0003036  84.6406 275.5140 14.60605129431594
GAOFEN-6                
1 43484U 18048A   26166.85139237  .00000304  00000+0  50615-4 0  9990
2 43484  97.8709 229.6314 0011693 171.3993 188.7420 14.76597001433195
