OBJECT_NAME,OBJECT_ID,EPOCH,MEAN_MOTION,ECCENTRICITY,INCLINATION,RA_OF_ASC_NODE,ARG_OF_PERICENTER,MEAN_ANOMALY,EPHEMERIS_TYPE,CLASSIFICATION_TYPE,NORAD_CAT_ID,ELEMENT_SET_NO,REV_AT_EPOCH,BSTAR,MEAN_MOTION_DOT,MEAN_MOTION_DDOT
SKYSAT-C1,2016-040C,2026-06-16T08:52:13.611072,15.36289892,.00035664,96.9554,199.1338,59.9863,300.1736,0,U,41601,999,55774,.2212858E-3,.7756E-4,0
LAPAN-A3,2016-040E,2026-06-16T14:29:22.326432,15.33101347,.00109481,97.1486,163.7686,27.8016,332.3810,0,U,41603,999,55472,.91131177E-4,.2843E-4,0
GAOFEN-3,2016-049A,2026-06-16T14:21:35.737056,14.42215429,.00013783,98.4003,175.3930,99.2306,260.9040,0,U,41727,999,51856,.14827149E-4,.5E-7,0
SKYSAT-C4,2016-058B,2026-06-16T13:21:40.539744,15.48568399,.00012998,96.9166,189.3554,131.5273,228.6090,0,U,41771,999,54537,.25012166E-3,.13251E-3,0
SKYSAT-C5,2016-058C,2026-06-16T09:16:42.070656,15.34460991,.00011394,97.0466,208.0627,322.5384,37.5781,0,U,41772,999,54362,.1996589E-3,.6589E-4,0
SKYSAT-C2,2016-058D,2026-06-16T13:05:37.464864,15.42057803,.00047196,97.0161,189.6644,72.1925,287.9838,0,U,41773,999,54495,.22840414E-3,.9678E-4,0
SKYSAT-C3,2016-058E,2026-06-16T13:31:07.672800,15.52514748,.00014999,96.8998,198.4337,95.9144,264.2281,0,U,41774,999,54601,.30943135E-3,.18889E-3,0
ALSAT-1B,2016-059C,2026-06-16T13:27:11.260800,14.72274312,.00080322,97.7743,176.3511,222.7088,137.3496,0,U,41785,999,52048,.39938422E-4,.205E-5,0
PATHFINDER 1,2016-059E,2026-06-16T14:11:12.329088,14.67662531,.00277447,97.8166,166.8943,205.5297,154.4540,0,U,41787,999,51962,.8794325E-4,.456E-5,0
SCATSAT 1,2016-059H,2026-06-16T14:30:36.785952,14.79524386,.00533614,98.1191,231.3647,249.4136,110.1346,0,U,41790,999,10150,.12411706E-3,.893E-5,0
GOKTURK 1A,2016-073A,2026-06-16T13:28:50.727072,14.62773983,.00014372,98.1259,62.2465,77.9383,282.1979,0,U,41875,999,50873,.57841958E-4,.248E-5,0
RESOURCESAT-2A,2016-074A,2026-06-16T15:33:50.805216,14.21616743,.00033652,98.7532,241.1572,84.6444,275.5117,0,U,41877,999,49422,.1131096E-3,.204E-5,0
CARTOSAT-2D,2017-008A,2026-06-16T10:24:48.774240,15.19330343,.00039306,97.4109,226.7539,231.7197,128.3684,0,U,41948,999,51746,.15796775E-3,.3269E-4,0
SENTINEL-2B,2017-013A,2026-06-16T13:52:29.599104,14.30817737,.00011917,98.5697,242.3611,87.2592,272.8727,0,U,42063,999,48455,.13978795E-3,.323E-5,0
CARTOSAT-2E,2017-036C,2026-06-16T15:35:05.473824,15.19252613,.00025513,97.4273,227.4609,322.7222,37.3835,0,U,42767,999,49806,.23418642E-3,.4869E-4,0
FORMOSAT-5,2017-049A,2026-06-16T13:41:01.792032,14.50898688,.00126902,98.2254,242.8936,86.0729,274.1916,0,U,42920,999,46658,.4461026E-4,.133E-5,0
SENTINEL-5P,2017-064A,2026-06-16T13:37:12.596160,14.19518841,.0000963,98.7925,109.7031,85.2387,274.8899,0,U,42969,999,44947,.35330212E-4,.3E-6,0
SKYSAT-C11,2017-068A,2026-06-16T09:57:33.079680,15.57859742,.00006529,97.4351,316.2117,85.8238,274.3092,0,U,42987,999,48312,.31054259E-3,.23062E-3,0
SKYSAT-C10,2017-068B,2026-06-16T09:06:28.218528,15.34627153,.00011147,97.4508,304.2182,96.2751,263.8619,0,U,42988,999,48223,.2290547E-3,.7605E-4,0
SKYSAT-C9,2017-068C,2026-06-16T07:55:28.710624,15.41543793,.00093885,97.4429,305.0950,135.6154,224.5847,0,U,42989,999,48262,.27153294E-3,.11332E-3,0
SKYSAT-C8,2017-068D,2026-06-16T10:00:44.395200,15.36963915,.00014659,97.4526,304.0531,95.7997,264.3415,0,U,42990,999,48219,.24534488E-3,.8787E-4,0
SKYSAT-C7,2017-068E,2026-06-16T08:17:45.593376,15.36912525,.00072034,97.4536,304.9700,108.9699,251.2326,0,U,42991,999,48224,.24899855E-3,.8911E-4,0
SKYSAT-C6,2017-068F,2026-06-16T14:59:58.721280,15.34202257,.00043922,97.4572,305.2249,139.0315,221.1258,0,U,42992,999,48223,.22931408E-3,.7513E-4,0
CARTOSAT-2F,2018-004A,2026-06-16T14:46:33.589920,15.19213990,.00005334,97.4792,227.2558,208.6977,151.4228,0,U,43111,999,46724,.19989523E-3,.414E-4,0
GAOFEN-1 02,2018-031A,2026-06-16T14:53:55.976928,14.76458261,.00038811,98.0531,230.1497,35.7443,324.4026,0,U,43259,999,44261,.17423104E-3,.1161E-4,0
GAOFEN-1 03,2018-031B,2026-06-16T14:22:28.550784,14.76468437,.00037503,98.0517,229.9862,80.2740,279.8893,0,U,43260,999,44260,.95326105E-4,.612E-5,0
GAOFEN-1 04,2018-031D,2026-06-16T04:01:54.374880,14.76478078,.00022392,98.0533,229.7469,82.9600,277.1864,0,U,43262,999,44253,.76072167E-4,.478E-5,0
SENTINEL-3B,2018-039A,2026-06-16T10:02:19.249440,14.26734457,.00007314,98.6250,234.9616,87.3639,272.7625,0,U,43437,999,42401,.48773229E-4,.74E-6,0
GAOFEN-5 01,2018-043A,2026-06-16T12:19:42.564576,14.60605129,.00030369,98.4569,139.0857,84.6406,275.5140,0,U,43461,999,43159,.66447688E-4,.274E-5,0
GAOFEN-6,2018-048A,2026-06-15T20:26:00.300768,14.76597001,.00116931,97.8709,229.6314,171.3993,188.7420,0,U,43484,999,43319,.5061483E-4,.304E-5,0
